[{"OBJECT_NAME":"INMARSAT 4-F2 (SOUTHPAN/PRN 122)","OBJECT_ID":"2005-044A","EPOCH":"2026-03-05T18:54:38.721888","MEAN_MOTION":1.00271238,"ECCENTRICITY":0.00027139,"INCLINATION":4.96,"RA_OF_ASC_NODE":43.8087,"ARG_OF_PERICENTER":323.6628,"MEAN_ANOMALY":223.1994,"EPHEMERIS_TYPE":0,"CLASSIFICATION_TYPE":"U","NORAD_CAT_ID":28899,"ELEMENT_SET_NO":999,"REV_AT_EPOCH":7448,"BSTAR":0,"MEAN_MOTION_DOT":-2.65e-6,"MEAN_MOTION_DDOT":0},{"OBJECT_NAME":"GSAT-8 (GAGAN/PRN 127)","OBJECT_ID":"2011-022A","EPOCH":"2026-03-06T03:57:02.731680","MEAN_MOTION":1.00273098,"ECCENTRICITY":0.00072005,"INCLINATION":1.8647,"RA_OF_ASC_NODE":83.1349,"ARG_OF_PERICENTER":216.1771,"MEAN_ANOMALY":338.8878,"EPHEMERIS_TYPE":0,"CLASSIFICATION_TYPE":"U","NORAD_CAT_ID":37605,"ELEMENT_SET_NO":999,"REV_AT_EPOCH":5218,"BSTAR":0,"MEAN_MOTION_DOT":8.0e-7,"MEAN_MOTION_DDOT":0},{"OBJECT_NAME":"LUCH 5A (SDCM/PRN 140)","OBJECT_ID":"2011-074B","EPOCH":"2026-03-06T06:11:42.318816","MEAN_MOTION":1.00275932,"ECCENTRICITY":0.00038907,"INCLINATION":8.4918,"RA_OF_ASC_NODE":75.3187,"ARG_OF_PERICENTER":247.7042,"MEAN_ANOMALY":101.0013,"EPHEMERIS_TYPE":0,"CLASSIFICATION_TYPE":"U","NORAD_CAT_ID":37951,"ELEMENT_SET_NO":999,"REV_AT_EPOCH":5201,"BSTAR":0,"MEAN_MOTION_DOT":-5.0e-7,"MEAN_MOTION_DDOT":0},{"OBJECT_NAME":"SES-5 (EGNOS/PRN 136)","OBJECT_ID":"2012-036A","EPOCH":"2026-03-05T20:52:00.995808","MEAN_MOTION":1.00271137,"ECCENTRICITY":0.00020596,"INCLINATION":0.0593,"RA_OF_ASC_NODE":310.9208,"ARG_OF_PERICENTER":30.8824,"MEAN_ANOMALY":139.762,"EPHEMERIS_TYPE":0,"CLASSIFICATION_TYPE":"U","NORAD_CAT_ID":38652,"ELEMENT_SET_NO":999,"REV_AT_EPOCH":4342,"BSTAR":0,"MEAN_MOTION_DOT":2.7e-7,"MEAN_MOTION_DDOT":0},{"OBJECT_NAME":"GSAT-10 (GAGAN/PRN 128)","OBJECT_ID":"2012-051B","EPOCH":"2026-03-06T04:04:54.478272","MEAN_MOTION":1.00273396,"ECCENTRICITY":0.00044593,"INCLINATION":0.0692,"RA_OF_ASC_NODE":262.3594,"ARG_OF_PERICENTER":177.1806,"MEAN_ANOMALY":228.5534,"EPHEMERIS_TYPE":0,"CLASSIFICATION_TYPE":"U","NORAD_CAT_ID":38779,"ELEMENT_SET_NO":999,"REV_AT_EPOCH":4906,"BSTAR":0,"MEAN_MOTION_DOT":-1.7e-6,"MEAN_MOTION_DDOT":0},{"OBJECT_NAME":"LUCH 5B (SDCM/PRN 125)","OBJECT_ID":"2012-061A","EPOCH":"2026-03-06T05:19:24.833280","MEAN_MOTION":1.00272155,"ECCENTRICITY":0.0003706,"INCLINATION":10.2624,"RA_OF_ASC_NODE":50.8867,"ARG_OF_PERICENTER":226.9001,"MEAN_ANOMALY":309.7014,"EPHEMERIS_TYPE":0,"CLASSIFICATION_TYPE":"U","NORAD_CAT_ID":38977,"ELEMENT_SET_NO":999,"REV_AT_EPOCH":4857,"BSTAR":0,"MEAN_MOTION_DOT":-1.4e-6,"MEAN_MOTION_DDOT":0},{"OBJECT_NAME":"ASTRA 5B (EGNOS/PRN 123)","OBJECT_ID":"2014-011B","EPOCH":"2026-03-06T05:30:46.244160","MEAN_MOTION":1.00271993,"ECCENTRICITY":0.00040469,"INCLINATION":0.0872,"RA_OF_ASC_NODE":300.4648,"ARG_OF_PERICENTER":28.2198,"MEAN_ANOMALY":301.4298,"EPHEMERIS_TYPE":0,"CLASSIFICATION_TYPE":"U","NORAD_CAT_ID":39617,"ELEMENT_SET_NO":999,"REV_AT_EPOCH":4363,"BSTAR":0,"MEAN_MOTION_DOT":1.32e-6,"MEAN_MOTION_DDOT":0},{"OBJECT_NAME":"LUCH 5V (SDCM/PRN 141)","OBJECT_ID":"2014-023A","EPOCH":"2026-03-06T00:42:58.841280","MEAN_MOTION":1.00271463,"ECCENTRICITY":0.00030589,"INCLINATION":4.879,"RA_OF_ASC_NODE":70.7602,"ARG_OF_PERICENTER":283.1507,"MEAN_ANOMALY":275.3216,"EPHEMERIS_TYPE":0,"CLASSIFICATION_TYPE":"U","NORAD_CAT_ID":39727,"ELEMENT_SET_NO":999,"REV_AT_EPOCH":4332,"BSTAR":0,"MEAN_MOTION_DOT":-2.73e-6,"MEAN_MOTION_DDOT":0},{"OBJECT_NAME":"GSAT-15 (GAGAN/PRN 139)","OBJECT_ID":"2015-065A","EPOCH":"2026-03-06T02:25:11.540064","MEAN_MOTION":1.00271608,"ECCENTRICITY":0.00011044,"INCLINATION":0.0855,"RA_OF_ASC_NODE":269.7149,"ARG_OF_PERICENTER":106.5589,"MEAN_ANOMALY":277.3204,"EPHEMERIS_TYPE":0,"CLASSIFICATION_TYPE":"U","NORAD_CAT_ID":41028,"ELEMENT_SET_NO":999,"REV_AT_EPOCH":3776,"BSTAR":0,"MEAN_MOTION_DOT":-2.63e-6,"MEAN_MOTION_DDOT":0},{"OBJECT_NAME":"EUTELSAT 117 WEST B (WAAS/PRN 131)","OBJECT_ID":"2016-038B","EPOCH":"2026-03-05T23:42:37.136448","MEAN_MOTION":1.00273781,"ECCENTRICITY":3.503e-5,"INCLINATION":0.0104,"RA_OF_ASC_NODE":328.8615,"ARG_OF_PERICENTER":267.7539,"MEAN_ANOMALY":165.7653,"EPHEMERIS_TYPE":0,"CLASSIFICATION_TYPE":"U","NORAD_CAT_ID":41589,"ELEMENT_SET_NO":999,"REV_AT_EPOCH":3562,"BSTAR":0,"MEAN_MOTION_DOT":-1.8e-7,"MEAN_MOTION_DDOT":0},{"OBJECT_NAME":"SES-15 (WAAS/PRN 133)","OBJECT_ID":"2017-026A","EPOCH":"2026-03-05T00:25:38.690688","MEAN_MOTION":1.0027106,"ECCENTRICITY":7.138e-5,"INCLINATION":0.0426,"RA_OF_ASC_NODE":307.9199,"ARG_OF_PERICENTER":39.5952,"MEAN_ANOMALY":52.4724,"EPHEMERIS_TYPE":0,"CLASSIFICATION_TYPE":"U","NORAD_CAT_ID":42709,"ELEMENT_SET_NO":999,"REV_AT_EPOCH":638,"BSTAR":0,"MEAN_MOTION_DOT":5.0e-7,"MEAN_MOTION_DDOT":0},{"OBJECT_NAME":"QZS-2 (QZSS/PRN 194)","OBJECT_ID":"2017-028A","EPOCH":"2026-03-05T17:39:05.611104","MEAN_MOTION":1.00261653,"ECCENTRICITY":0.07454866,"INCLINATION":39.5883,"RA_OF_ASC_NODE":244.6601,"ARG_OF_PERICENTER":270.3415,"MEAN_ANOMALY":54.7958,"EPHEMERIS_TYPE":0,"CLASSIFICATION_TYPE":"U","NORAD_CAT_ID":42738,"ELEMENT_SET_NO":999,"REV_AT_EPOCH":658,"BSTAR":0,"MEAN_MOTION_DOT":-1.7e-6,"MEAN_MOTION_DDOT":0},{"OBJECT_NAME":"QZS-3 (QZSS/PRN 199)","OBJECT_ID":"2017-048A","EPOCH":"2026-03-06T05:46:38.659872","MEAN_MOTION":1.00275459,"ECCENTRICITY":0.00022867,"INCLINATION":0.0688,"RA_OF_ASC_NODE":213.6075,"ARG_OF_PERICENTER":145.5938,"MEAN_ANOMALY":18.422,"EPHEMERIS_TYPE":0,"CLASSIFICATION_TYPE":"U","NORAD_CAT_ID":42917,"ELEMENT_SET_NO":999,"REV_AT_EPOCH":3122,"BSTAR":0,"MEAN_MOTION_DOT":-3.53e-6,"MEAN_MOTION_DDOT":0},{"OBJECT_NAME":"QZS-4 (QZSS/PRN 195)","OBJECT_ID":"2017-062A","EPOCH":"2026-03-05T17:47:25.010880","MEAN_MOTION":1.00280691,"ECCENTRICITY":0.07484947,"INCLINATION":40.1722,"RA_OF_ASC_NODE":344.8064,"ARG_OF_PERICENTER":269.915,"MEAN_ANOMALY":316.0784,"EPHEMERIS_TYPE":0,"CLASSIFICATION_TYPE":"U","NORAD_CAT_ID":42965,"ELEMENT_SET_NO":999,"REV_AT_EPOCH":3076,"BSTAR":0,"MEAN_MOTION_DOT":-3.41e-6,"MEAN_MOTION_DDOT":0},{"OBJECT_NAME":"BEIDOU-3 G1 (PRN 130)","OBJECT_ID":"2018-085A","EPOCH":"2026-03-06T07:46:40.711584","MEAN_MOTION":1.0026805,"ECCENTRICITY":0.00014893,"INCLINATION":2.8155,"RA_OF_ASC_NODE":100.3325,"ARG_OF_PERICENTER":17.2822,"MEAN_ANOMALY":303.1125,"EPHEMERIS_TYPE":0,"CLASSIFICATION_TYPE":"U","NORAD_CAT_ID":43683,"ELEMENT_SET_NO":999,"REV_AT_EPOCH":2702,"BSTAR":0,"MEAN_MOTION_DOT":-2.83e-6,"MEAN_MOTION_DDOT":0},{"OBJECT_NAME":"EUTELSAT 5 WEST B (EGNOS/PRN 121)","OBJECT_ID":"2019-067A","EPOCH":"2026-03-06T05:22:32.033568","MEAN_MOTION":1.00273024,"ECCENTRICITY":0.00032148,"INCLINATION":0.0915,"RA_OF_ASC_NODE":312.4399,"ARG_OF_PERICENTER":43.6437,"MEAN_ANOMALY":243.468,"EPHEMERIS_TYPE":0,"CLASSIFICATION_TYPE":"U","NORAD_CAT_ID":44624,"ELEMENT_SET_NO":999,"REV_AT_EPOCH":2340,"BSTAR":0,"MEAN_MOTION_DOT":-4.7e-7,"MEAN_MOTION_DDOT":0},{"OBJECT_NAME":"BEIDOU-3 G2 (PRN 144)","OBJECT_ID":"2020-017A","EPOCH":"2026-03-05T19:30:47.438784","MEAN_MOTION":1.00271514,"ECCENTRICITY":0.00027994,"INCLINATION":2.6571,"RA_OF_ASC_NODE":45.6818,"ARG_OF_PERICENTER":312.9867,"MEAN_ANOMALY":177.5975,"EPHEMERIS_TYPE":0,"CLASSIFICATION_TYPE":"U","NORAD_CAT_ID":45344,"ELEMENT_SET_NO":999,"REV_AT_EPOCH":2222,"BSTAR":0,"MEAN_MOTION_DOT":-1.45e-6,"MEAN_MOTION_DDOT":0}]
